NORAD_CAT_ID,OBJECT_NAME,OBJECT_TYPE,EPOCH,MEAN_MOTION,ECCENTRICITY,INCLINATION,RA_OF_ASC_NODE,ARG_OF_PERICENTER,MEAN_ANOMALY,BSTAR,MEAN_MOTION_DOT,MEAN_MOTION_DDOT,TLE_LINE0,TLE_LINE1,TLE_LINE2,SEMIMAJOR_AXIS,PERIOD,APOGEE,PERIGEE,DECAYED
53890.0,STARLINK-5050,PAYLOAD,2023-01-07 14:54:07,15.73169019,0.0008227999999999,53.2122,93.5773,296.1752,63.8421,-4.6209e-05,-7.117e-05,0.0,0 STARLINK-5050,1 53890U 22119E   23007.62092426 -.00007117  00000-0 -46209-4 0  9996,2 53890  53.2122  93.5773 0008228 296.1752  63.8421 15.73169019 16922,6727.984,91.535,355.384,344.3130000000001,0.0
53890.0,STARLINK-5050,PAYLOAD,2023-01-08 12:14:50,15.73217579,0.0008323,53.2148,89.1761,292.8843,67.1298,0.00012189,0.00016556,0.0,0 STARLINK-5050,1 53890U 22119E   23008.51031168  .00016556  00000-0  12189-3 0  9995,2 53890  53.2148  89.1761 0008323 292.8843  67.1298 15.73217579 17068,6727.845,91.532,355.31,344.11,0.0
53890.0,STARLINK-5050,PAYLOAD,2023-01-08 13:46:19,15.73217966,0.0008677,53.2141,88.8611,293.9213,66.0898,0.0001151,0.000156,0.0,0 STARLINK-5050,1 53890U 22119E   23008.57384005  .00015600  00000-0  11510-3 0  9998,2 53890  53.2141  88.8611 0008677 293.9213  66.0898 15.73217966 17509,6727.844,91.532,355.547,343.871,0.0
53890.0,STARLINK-5050,PAYLOAD,2023-01-08 15:17:48,15.73219157,0.0008623,53.214,88.5471,294.3427,65.6693,0.00011227,0.000152,0.0,0 STARLINK-5050,1 53890U 22119E   23008.63736748  .00015200  00000-0  11227-3 0  9991,2 53890  53.2140  88.5471 0008623 294.3427  65.6693 15.73219157 17515,6727.840999999999,91.532,355.50699999999995,343.904,0.0
53890.0,STARLINK-5050,PAYLOAD,2023-01-09 14:10:00,15.73218047,0.0009308,53.2138,83.8309,292.8893,67.1144,3.5643000000000004e-05,4.388e-05,0.0,0 STARLINK-5050,1 53890U 22119E   23009.59027783  .00004388  00000-0  35643-4 0  9993,2 53890  53.2138  83.8309 0009308 292.8893  67.1144 15.73218047 17235,6727.844,91.532,355.971,343.446,0.0
53890.0,STARLINK-5050,PAYLOAD,2023-01-10 11:30:43,15.73213939,0.0008817,53.2117,79.4281,295.1395,64.87100000000001,-1.3861e-05,-2.584e-05,0.0,0 STARLINK-5050,1 53890U 22119E   23010.47966668 -.00002584  00000-0 -13861-4 0  9992,2 53890  53.2117  79.4281 0008817 295.1395  64.8710 15.73213939 17372,6727.855,91.532,355.652,343.788,0.0
53890.0,STARLINK-5050,PAYLOAD,2023-01-10 13:02:11,15.73218224,0.0008548,53.2141,79.1159,295.0395,64.9737,-8.983999999999999e-06,-1.897e-05,0.0,0 STARLINK-5050,1 53890U 22119E   23010.54319220 -.00001897  00000-0 -89840-5 0  9993,2 53890  53.2141  79.1159 0008548 295.0395  64.9737 15.73218224 17811,6727.843000000002,91.532,355.459,343.957,0.0
53890.0,STARLINK-5050,PAYLOAD,2023-01-10 23:42:32,15.73225811,0.0008685,53.2129,76.9137,296.3704,63.6424,2.0302e-05,2.226e-05,0.0,0 STARLINK-5050,1 53890U 22119E   23010.98787895  .00002226  00000-0  20302-4 0  9990,2 53890  53.2129  76.9137 0008685 296.3704  63.6424 15.73225811 17457,6727.821999999999,91.532,355.53,343.843,0.0
53890.0,STARLINK-5050,PAYLOAD,2023-01-11 10:22:54,15.73215021,0.000869,53.2133,74.7147,294.0441,65.9669,1.5384e-05,1.533e-05,0.0,0 STARLINK-5050,1 53890U 22119E   23011.43257492  .00001533  00000-0  15384-4 0  9990,2 53890  53.2133  74.7147 0008690 294.0441  65.9669 15.73215021 17524,6727.852,91.532,355.564,343.871,0.0
53890.0,STARLINK-5050,PAYLOAD,2023-01-11 21:03:16,15.73212174,0.0008432,53.213,72.5134,295.0007,65.0137,7.0928e-06,3.65e-06,0.0,0 STARLINK-5050,1 53890U 22119E   23011.87727050  .00000365  00000-0  70928-5 0  9998,2 53890  53.2130  72.5134 0008432 295.0007  65.0137 15.73212174 18029,6727.86,91.532,355.398,344.05300000000005,0.0
53890.0,STARLINK-5050,PAYLOAD,2023-01-12 10:46:36,15.73192778,0.0008349,53.2135,69.6828,296.3268,63.6894,-4.0728e-05,-6.355e-05,0.0,0 STARLINK-5050,1 53890U 22119E   23012.44903310 -.00006355  00000-0 -40728-4 0  9998,2 53890  53.2135  69.6828 0008349 296.3268  63.6894 15.73192778 17683,6727.916,91.534,355.398,344.164,0.0
53890.0,STARLINK-5050,PAYLOAD,2023-01-12 22:58:27,15.73199159,0.000797,53.2135,67.1684,297.2902,62.7306,-1.1247e-05,-2.213e-05,0.0,0 STARLINK-5050,1 53890U 22119E   23012.95725756 -.00002213  00000-0 -11247-4 0  9993,2 53890  53.2135  67.1684 0007970 297.2902  62.7306 15.73199159 17767,6727.898,91.533,355.125,344.4,0.0
53890.0,STARLINK-5050,PAYLOAD,2023-01-13 09:39:08,15.72795201,0.0005951,53.2136,64.9685,299.1199,60.9225,-0.00064163,-0.00088308,0.0,0 STARLINK-5050,1 53890U 22119E   23013.40218450 -.00088308  00000-0 -64163-3 0  9995,2 53890  53.2136  64.9685 0005951 299.1199  60.9225 15.72795201 17837,6729.05,91.557,354.91900000000004,346.91,0.0
53890.0,STARLINK-5050,PAYLOAD,2023-01-13 12:42:13,15.72675092,0.0005428999999999,53.2132,64.3391,299.8191,60.2289,-0.0008136,-0.00110924,0.0,0 STARLINK-5050,1 53890U 22119E   23013.52932813 -.00110924  00000-0 -81360-3 0  9992,2 53890  53.2132  64.3391 0005429 299.8191  60.2289 15.72675092 18288,6729.392,91.564,354.911,347.60400000000004,0.0
53890.0,STARLINK-5050,PAYLOAD,2023-01-13 20:20:01,15.72369649,0.0004453,53.2134,62.7699,305.0786,54.9816,-0.0011529,-0.00154065,0.0,0 STARLINK-5050,1 53890U 22119E   23013.84723881 -.00154065  00000-0 -11529-2 0  9993,2 53890  53.2134  62.7699 0004453 305.0786  54.9816 15.72369649 18339,6730.264,91.582,355.126,349.13199999999995,0.0
53890.0,STARLINK-5050,PAYLOAD,2023-01-14 02:26:24,15.71991107,0.0002941,53.213,61.5139,292.6133,67.4575,-0.0016073,-0.0020965999999999,0.0,0 STARLINK-5050,1 53890U 22119E   23014.10167347 -.00209660  00000-0 -16073-2 0  9993,2 53890  53.2130  61.5139 0002941 292.6133  67.4575 15.71991107 17944,6731.344,91.604,355.189,351.22900000000004,0.0
53890.0,STARLINK-5050,PAYLOAD,2023-01-14 10:04:24,15.71355327,0.0001543,53.213,59.9422,274.0841,86.0002,-0.0027947,-0.0034857,0.0,0 STARLINK-5050,1 53890U 22119E   23014.41972423 -.00348570  00000-0 -27947-2 0  9992,2 53890  53.2130  59.9422 0001543 274.0841  86.0002 15.71355327 17992,6733.16,91.641,356.06300000000005,353.986,0.0
53890.0,STARLINK-5050,PAYLOAD,2023-01-14 17:42:39,15.70799816,0.0002771,53.2117,58.3743,314.3765,45.7027,-0.0033147,-0.00401381,0.0,0 STARLINK-5050,1 53890U 22119E   23014.73796288 -.00401381  00000-0 -33147-2 0  9999,2 53890  53.2117  58.3743 0002771 314.3765  45.7027 15.70799816 18043,6734.746999999999,91.673,358.478,354.746,0.0
53890.0,STARLINK-5050,PAYLOAD,2023-01-15 02:52:45,15.70252624,0.0001192,53.2113,56.4951,320.7594,39.3338,-0.0032657,-0.00386991,0.0,0 STARLINK-5050,1 53890U 22119E   23015.11997409 -.00386991  00000-0 -32657-2 0  9994,2 53890  53.2113  56.4951 0001192 320.7594  39.3338 15.70252624 18108,6736.311,91.705,358.97900000000004,357.37300000000005,0.0
53890.0,STARLINK-5050,PAYLOAD,2023-01-15 08:59:43,15.69684332,0.0001163,53.2114,55.242,312.0004,48.0915,-0.0037783,-0.00434687,0.0,0 STARLINK-5050,1 53890U 22119E   23015.37480867 -.00434687  00000-0 -37783-2 0  9998,2 53890  53.2114  55.2420 0001163 312.0004  48.0915 15.69684332 18140,6737.937,91.738,360.586,359.019,0.0
53890.0,STARLINK-5050,PAYLOAD,2023-01-15 13:35:04,15.69203151,0.0001115,53.2116,54.3012,303.5304,56.5607,-0.0040403,-0.00454514,0.0,0 STARLINK-5050,1 53890U 22119E   23015.56602149 -.00454514  00000-0 -40403-2 0  9992,2 53890  53.2116  54.3012 0001115 303.5304  56.5607 15.69203151 18603,6739.315,91.766,361.931,360.42800000000005,0.0
53890.0,STARLINK-5050,PAYLOAD,2023-01-15 19:42:08,15.68857686,0.0002381,53.2129,53.049,356.292,3.808,-0.0038216,-0.00425439,0.0,0 STARLINK-5050,1 53890U 22119E   23015.82093673 -.00425439  00000-0 -38216-2 0  9990,2 53890  53.2129  53.0490 0002381 356.2920   3.8080 15.68857686 18212,6740.304,91.787,363.774,360.564,0.0
53890.0,STARLINK-5050,PAYLOAD,2023-01-16 01:49:25,15.68318827,0.0001361999999999,53.2107,51.7942,147.7613,212.3489,-0.0038588,-0.0042029,0.0,0 STARLINK-5050,1 53890U 22119E   23016.07599141 -.00420290  00000-0 -38588-2 0  9991,2 53890  53.2107  51.7942 0001362 147.7613 212.3489 15.68318827 18258,6741.848000000001,91.818,364.631,362.794,0.0
53890.0,STARLINK-5050,PAYLOAD,2023-01-16 11:00:34,15.67530328,3.03e-05,53.2115,49.9188,81.8679,278.2372,-0.0042197,-0.00443604,0.0,0 STARLINK-5050,1 53890U 22119E   23016.45872820 -.00443604  00000-0 -42197-2 0  9996,2 53890  53.2115  49.9188 0000303  81.8679 278.2372 15.67530328 18312,6744.108,91.864,366.17800000000005,365.769,0.0
53890.0,STARLINK-5050,PAYLOAD,2023-01-16 15:36:14,15.67117621,5.12e-05,53.2117,48.9813,87.6673,272.4403,-0.0044773,-0.00461804,0.0,0 STARLINK-5050,1 53890U 22119E   23016.65016770 -.00461804  00000-0 -44773-2 0  9996,2 53890  53.2117  48.9813 0000512  87.6673 272.4403 15.67117621 18349,6745.292,91.888,367.503,366.812,0.0
53890.0,STARLINK-5050,PAYLOAD,2023-01-17 03:51:38,15.661494199999998,4.89e-05,53.2118,46.4821,67.6938,292.4131,-0.0044716,-0.00444393,0.0,0 STARLINK-5050,1 53890U 22119E   23017.16086549 -.00444393  00000-0 -44716-2 0  9995,2 53890  53.2118  46.4821 0000489  67.6938 292.4131 15.66149420 18427,6748.071999999999,91.945,370.267,369.607,0.0
53890.0,STARLINK-5050,PAYLOAD,2023-01-17 11:31:31,15.65500624,0.0001463,53.2116,44.9211,44.1087,316.0047,-0.0046927,-0.00453888,0.0,0 STARLINK-5050,1 53890U 22119E   23017.48022776 -.00453888  00000-0 -46927-2 0  9997,2 53890  53.2116  44.9211 0001463  44.1087 316.0047 15.65500624 18479,6749.936,91.983,372.789,370.814,0.0
53890.0,STARLINK-5050,PAYLOAD,2023-01-17 13:03:30,15.65404994,4.73e-05,53.2116,44.6091,25.8336,334.2704,-0.0046674,-0.00449845,0.0,0 STARLINK-5050,1 53890U 22119E   23017.54409879 -.00449845  00000-0 -46674-2 0  9994,2 53890  53.2116  44.6091 0000473  25.8336 334.2704 15.65404994 18919,6750.210999999999,91.989,372.396,371.757,0.0
53890.0,STARLINK-5050,PAYLOAD,2023-01-17 19:11:32,15.6498125,0.0002041999999999,53.212,43.3613,47.0509,313.0678,-0.0044614,-0.00424227,0.0,0 STARLINK-5050,1 53890U 22119E   23017.79967858 -.00424227  00000-0 -44614-2 0  9996,2 53890  53.2120  43.3613 0002042  47.0509 313.0678 15.64981250 18528,6751.43,92.014,374.673,371.916,0.0
